start=new Date('2022-11-18T00:00:00.000Z').valueOf();
sats=[{"RCS_SIZE":"LARGE","PERIAPSIS":"538.192","DECAY_DATE":null,"LAUNCH_DATE":"2022-08-10","TIME_SYSTEM":"UTC","CENTER_NAME":"EARTH","SEMIMAJOR_AXIS":"6917.907","COUNTRY_CODE":"US","MEAN_MOTION_DOT":"-0.00000099","INCLINATION":"53.2178","MEAN_MOTION_DDOT":"0.0000000000000","RA_OF_ASC_NODE":"146.4973","MEAN_ELEMENT_THEORY":"SGP4","EPHEMERIS_TYPE":"0","ELEMENT_SET_NO":"999","TLE_LINE1":"1 53395U 22097H   22321.81364907 -.00000099  00000-0  11895-4 0  9990","CLASSIFICATION_TYPE":"U","ECCENTRICITY":"0.00022850","MEAN_ANOMALY":"311.4882","REF_FRAME":"TEME","OBJECT_TYPE":"PAYLOAD","APOAPSIS":"541.353","GP_ID":"218098999","FILE":"3661914","EPOCH":"2022-11-17T19:31:39.279648","TLE_LINE2":"2 53395  53.2178 146.4973 0002285  48.6306 311.4882 15.08831167 16162","REV_AT_EPOCH":"1616","BSTAR":"0.00001189500000","NORAD_CAT_ID":"53395","MEAN_MOTION":"15.08831167","PERIOD":"95.438","SITE":"AFETR","OBJECT_NAME":"STARLINK-4534","ARG_OF_PERICENTER":"48.6306","OBJECT_ID":"2022-097H"},{"OBJECT_ID":"2022-097J","ARG_OF_PERICENTER":"42.3756","OBJECT_NAME":"STARLINK-4524","SITE":"AFETR","PERIOD":"95.437","MEAN_MOTION":"15.08843260","NORAD_CAT_ID":"53396","BSTAR":"0.00013179000000","REV_AT_EPOCH":"1616","TLE_LINE2":"2 53396  53.2183 146.5506 0002430  42.3756 317.7424 15.08843260 16162","EPOCH":"2022-11-17T19:10:25.620960","FILE":"3661914","APOAPSIS":"541.416","GP_ID":"218098167","OBJECT_TYPE":"PAYLOAD","REF_FRAME":"TEME","MEAN_ANOMALY":"317.7424","ECCENTRICITY":"0.00024300","CLASSIFICATION_TYPE":"U","TLE_LINE1":"1 53396U 22097J   22321.79890765  .00001810  00000-0  13179-3 0  9991","ELEMENT_SET_NO":"999","EPHEMERIS_TYPE":"0","MEAN_ELEMENT_THEORY":"SGP4","RA_OF_ASC_NODE":"146.5506","MEAN_MOTION_DDOT":"0.0000000000000","INCLINATION":"53.2183","MEAN_MOTION_DOT":"0.00001810","COUNTRY_CODE":"US","SEMIMAJOR_AXIS":"6917.870","DECAY_DATE":null,"CENTER_NAME":"EARTH","LAUNCH_DATE":"2022-08-10","TIME_SYSTEM":"UTC","PERIAPSIS":"538.054","RCS_SIZE":"LARGE"},{"PERIOD":"95.438","ARG_OF_PERICENTER":"48.6503","OBJECT_ID":"2022-097K","SITE":"AFETR","OBJECT_NAME":"STARLINK-4515","BSTAR":"0.00006561200000","MEAN_MOTION":"15.08837910","NORAD_CAT_ID":"53397","TLE_LINE2":"2 53397  53.2176 146.5133 0001923  48.6503 311.4655 15.08837910 16168","REV_AT_EPOCH":"1616","OBJECT_TYPE":"PAYLOAD","APOAPSIS":"541.082","GP_ID":"218098333","REF_FRAME":"TEME","EPOCH":"2022-11-17T19:26:20.223456","FILE":"3661914","MEAN_ANOMALY":"311.4655","ECCENTRICITY":"0.00019230","EPHEMERIS_TYPE":"0","ELEMENT_SET_NO":"999","TLE_LINE1":"1 53397U 22097K   22321.80995629  .00000756  00000-0  65612-4 0  9997","CLASSIFICATION_TYPE":"U","INCLINATION":"53.2176","MEAN_MOTION_DDOT":"0.0000000000000","MEAN_ELEMENT_THEORY":"SGP4","RA_OF_ASC_NODE":"146.5133","PERIAPSIS":"538.421","RCS_SIZE":"LARGE","COUNTRY_CODE":"US","SEMIMAJOR_AXIS":"6917.887","MEAN_MOTION_DOT":"0.00000756","DECAY_DATE":null,"LAUNCH_DATE":"2022-08-10","CENTER_NAME":"EARTH","TIME_SYSTEM":"UTC"},{"ECCENTRICITY":"0.00019810","MEAN_ANOMALY":"309.4493","TLE_LINE1":"1 53398U 22097L   22321.65913355 -.00006724  00000-0 -40540-3 0  9992","ELEMENT_SET_NO":"999","CLASSIFICATION_TYPE":"U","EPHEMERIS_TYPE":"0","APOAPSIS":"541.291","GP_ID":"218098842","OBJECT_TYPE":"PAYLOAD","REF_FRAME":"TEME","EPOCH":"2022-11-17T15:49:09.138720","FILE":"3661914","PERIAPSIS":"538.550","RCS_SIZE":"LARGE","MEAN_MOTION_DOT":"-0.00006724","COUNTRY_CODE":"US","SEMIMAJOR_AXIS":"6918.056","DECAY_DATE":null,"LAUNCH_DATE":"2022-08-10","CENTER_NAME":"EARTH","TIME_SYSTEM":"UTC","MEAN_MOTION_DDOT":"0.0000000000000","INCLINATION":"53.2177","MEAN_ELEMENT_THEORY":"SGP4","RA_OF_ASC_NODE":"147.1708","BSTAR":"-0.00040540000000","MEAN_MOTION":"15.08782691","NORAD_CAT_ID":"53398","PERIOD":"95.441","OBJECT_ID":"2022-097L","ARG_OF_PERICENTER":"50.6675","OBJECT_NAME":"STARLINK-4512","SITE":"AFETR","REV_AT_EPOCH":"1614","TLE_LINE2":"2 53398  53.2177 147.1708 0001981  50.6675 309.4493 15.08782691 16142"},{"MEAN_ANOMALY":"297.8803","ECCENTRICITY":"0.00020120","CLASSIFICATION_TYPE":"U","TLE_LINE1":"1 53399U 22097M   22321.80260446  .00004626  00000-0  30847-3 0  9992","ELEMENT_SET_NO":"999","EPHEMERIS_TYPE":"0","GP_ID":"218099324","APOAPSIS":"541.097","OBJECT_TYPE":"PAYLOAD","REF_FRAME":"TEME","EPOCH":"2022-11-17T19:15:45.025344","FILE":"3661914","PERIAPSIS":"538.313","RCS_SIZE":"LARGE","MEAN_MOTION_DOT":"0.00004626","COUNTRY_CODE":"US","SEMIMAJOR_AXIS":"6917.840","DECAY_DATE":null,"LAUNCH_DATE":"2022-08-10","TIME_SYSTEM":"UTC","CENTER_NAME":"EARTH","MEAN_MOTION_DDOT":"0.0000000000000","INCLINATION":"53.2170","MEAN_ELEMENT_THEORY":"SGP4","RA_OF_ASC_NODE":"146.5391","BSTAR":"0.00030847000000","MEAN_MOTION":"15.08853273","NORAD_CAT_ID":"53399","PERIOD":"95.437","OBJECT_ID":"2022-097M","ARG_OF_PERICENTER":"62.2393","OBJECT_NAME":"STARLINK-4528","SITE":"AFETR","TLE_LINE2":"2 53399  53.2170 146.5391 0002012  62.2393 297.8803 15.08853273 16161","REV_AT_EPOCH":"1616"},{"RA_OF_ASC_NODE":"146.6214","MEAN_ELEMENT_THEORY":"SGP4","INCLINATION":"53.2192","MEAN_MOTION_DDOT":"0.0000000000000","DECAY_DATE":null,"LAUNCH_DATE":"2022-08-10","TIME_SYSTEM":"UTC","CENTER_NAME":"EARTH","COUNTRY_CODE":"US","SEMIMAJOR_AXIS":"6917.880","MEAN_MOTION_DOT":"-0.00000073","RCS_SIZE":"LARGE","PERIAPSIS":"538.436","FILE":"3661914","EPOCH":"2022-11-17T18:43:57.184608","REF_FRAME":"TEME","OBJECT_TYPE":"PAYLOAD","GP_ID":"218098509","APOAPSIS":"541.055","EPHEMERIS_TYPE":"0","CLASSIFICATION_TYPE":"U","TLE_LINE1":"1 53400U 22097N   22321.78052297 -.00000073  00000-0  13518-4 0  9995","ELEMENT_SET_NO":"999","MEAN_ANOMALY":"313.4016","ECCENTRICITY":"0.00018930","TLE_LINE2":"2 53400  53.2192 146.6214 0001893  46.7134 313.4016 15.08840052 16161","REV_AT_EPOCH":"1616","SITE":"AFETR","OBJECT_NAME":"STARLINK-4520","ARG_OF_PERICENTER":"46.7134","OBJECT_ID":"2022-097N","PERIOD":"95.438","NORAD_CAT_ID":"53400","MEAN_MOTION":"15.08840052","BSTAR":"0.00001351800000"},{"MEAN_ELEMENT_THEORY":"SGP4","RA_OF_ASC_NODE":"147.1635","INCLINATION":"53.2173","MEAN_MOTION_DDOT":"0.0000000000000","SEMIMAJOR_AXIS":"6917.949","COUNTRY_CODE":"US","MEAN_MOTION_DOT":"-0.00001326","LAUNCH_DATE":"2022-08-10","DECAY_DATE":null,"CENTER_NAME":"EARTH","TIME_SYSTEM":"UTC","PERIAPSIS":"538.150","RCS_SIZE":"LARGE","EPOCH":"2022-11-17T15:54:25.530336","FILE":"3661914","OBJECT_TYPE":"PAYLOAD","APOAPSIS":"541.479","GP_ID":"218098676","REF_FRAME":"TEME","ECCENTRICITY":"0.00024060","MEAN_ANOMALY":"308.2779","EPHEMERIS_TYPE":"0","TLE_LINE1":"1 53401U 22097P   22321.66279549 -.00001326  00000-0 -65225-4 0  9999","CLASSIFICATION_TYPE":"U","ELEMENT_SET_NO":"999","TLE_LINE2":"2 53401  53.2173 147.1635 0002406  51.8429 308.2779 15.08817485 16149","REV_AT_EPOCH":"1614","ARG_OF_PERICENTER":"51.8429","OBJECT_ID":"2022-097P","SITE":"AFETR","OBJECT_NAME":"STARLINK-4525","PERIOD":"95.439","MEAN_MOTION":"15.08817485","NORAD_CAT_ID":"53401","BSTAR":"-0.00006522500000"},{"NORAD_CAT_ID":"53402","MEAN_MOTION":"15.08826173","BSTAR":"0.00011523000000","OBJECT_NAME":"STARLINK-4499","SITE":"AFETR","OBJECT_ID":"2022-097Q","ARG_OF_PERICENTER":"55.0618","PERIOD":"95.438","REV_AT_EPOCH":"1616","TLE_LINE2":"2 53402  53.2159 146.6382 0001538  55.0618 305.0518 15.08826173 16160","TLE_LINE1":"1 53402U 22097Q   22321.77684786  .00001546  00000-0  11523-3 0  9998","ELEMENT_SET_NO":"999","CLASSIFICATION_TYPE":"U","EPHEMERIS_TYPE":"0","MEAN_ANOMALY":"305.0518","ECCENTRICITY":"0.00015380","FILE":"3661914","EPOCH":"2022-11-17T18:38:39.655104","REF_FRAME":"TEME","GP_ID":"218099166","APOAPSIS":"540.852","OBJECT_TYPE":"PAYLOAD","LAUNCH_DATE":"2022-08-10","DECAY_DATE":null,"CENTER_NAME":"EARTH","TIME_SYSTEM":"UTC","MEAN_MOTION_DOT":"0.00001546","SEMIMAJOR_AXIS":"6917.923","COUNTRY_CODE":"US","RCS_SIZE":"LARGE","PERIAPSIS":"538.724","RA_OF_ASC_NODE":"146.6382","MEAN_ELEMENT_THEORY":"SGP4","MEAN_MOTION_DDOT":"0.0000000000000","INCLINATION":"53.2159"},{"REV_AT_EPOCH":"1616","TLE_LINE2":"2 53403  53.2166 146.5858 0001755  56.6365 303.4795 15.08836681 16167","NORAD_CAT_ID":"53403","MEAN_MOTION":"15.08836681","BSTAR":"0.00001403500000","OBJECT_NAME":"STARLINK-4507","SITE":"AFETR","OBJECT_ID":"2022-097R","ARG_OF_PERICENTER":"56.6365","PERIOD":"95.438","DECAY_DATE":null,"LAUNCH_DATE":"2022-08-10","TIME_SYSTEM":"UTC","CENTER_NAME":"EARTH","MEAN_MOTION_DOT":"-0.00000065","COUNTRY_CODE":"US","SEMIMAJOR_AXIS":"6917.891","RCS_SIZE":"LARGE","PERIAPSIS":"538.541","RA_OF_ASC_NODE":"146.5858","MEAN_ELEMENT_THEORY":"SGP4","MEAN_MOTION_DDOT":"0.0000000000000","INCLINATION":"53.2166","TLE_LINE1":"1 53403U 22097R   22321.78884092 -.00000065  00000-0  14035-4 0  9990","ELEMENT_SET_NO":"999","CLASSIFICATION_TYPE":"U","EPHEMERIS_TYPE":"0","MEAN_ANOMALY":"303.4795","ECCENTRICITY":"0.00017550","FILE":"3661914","EPOCH":"2022-11-17T18:55:55.855488","REF_FRAME":"TEME","GP_ID":"218099000","APOAPSIS":"540.970","OBJECT_TYPE":"PAYLOAD"},{"INCLINATION":"53.2144","MEAN_MOTION_DDOT":"0.0000000000000","RA_OF_ASC_NODE":"137.2930","MEAN_ELEMENT_THEORY":"SGP4","RCS_SIZE":"LARGE","PERIAPSIS":"538.317","LAUNCH_DATE":"2022-08-10","DECAY_DATE":null,"TIME_SYSTEM":"UTC","CENTER_NAME":"EARTH","COUNTRY_CODE":"US","SEMIMAJOR_AXIS":"6917.855","MEAN_MOTION_DOT":"0.00001166","REF_FRAME":"TEME","OBJECT_TYPE":"PAYLOAD","APOAPSIS":"541.122","GP_ID":"218098168","FILE":"3661914","EPOCH":"2022-11-17T15:13:17.511744","EPHEMERIS_TYPE":"0","TLE_LINE1":"1 53404U 22097S   22321.63423046  .00001166  00000-0  91312-4 0  9998","ELEMENT_SET_NO":"999","CLASSIFICATION_TYPE":"U","MEAN_ANOMALY":"310.0677","ECCENTRICITY":"0.00020280","REV_AT_EPOCH":"1627","TLE_LINE2":"2 53404  53.2144 137.2930 0002028  50.0493 310.0677 15.08848453 16271","PERIOD":"95.437","SITE":"AFETR","OBJECT_NAME":"STARLINK-4509","ARG_OF_PERICENTER":"50.0493","OBJECT_ID":"2022-097S","BSTAR":"0.00009131200000","NORAD_CAT_ID":"53404","MEAN_MOTION":"15.08848453"}];
